CCSDS_OMM_VERS = 2.0
CREATION_DATE  = 
ORIGINATOR     = 

OBJECT_NAME    = STARLINK-34542
OBJECT_ID      = 2025-224J
CENTER_NAME    = EARTH
REF_FRAME      = TEME
TIME_SYSTEM    = UTC
MEAN_ELEMENT_THEORY = SGP/SGP4

EPOCH          = 2025-10-31T06:00:02.000160
MEAN_MOTION    = 15.49291757
ECCENTRICITY   = .00013479
INCLINATION    = 53.1589
RA_OF_ASC_NODE = 254.6317
ARG_OF_PERICENTER = 85.3964
MEAN_ANOMALY   = 62.1298

EPHEMERIS_TYPE = 0
CLASSIFICATION_TYPE = U
NORAD_CAT_ID   = 65890
ELEMENT_SET_NO = 999
REV_AT_EPOCH   = 507
BSTAR          = -.3751631E-3
MEAN_MOTION_DOT = -.21244E-3
MEAN_MOTION_DDOT = 0

CCSDS_OMM_VERS = 2.0
CREATION_DATE  = 
ORIGINATOR     = 

OBJECT_NAME    = STARLINK-34791
OBJECT_ID      = 2025-224K
CENTER_NAME    = EARTH
REF_FRAME      = TEME
TIME_SYSTEM    = UTC
MEAN_ELEMENT_THEORY = SGP/SGP4

EPOCH          = 2025-10-31T06:00:02.000160
MEAN_MOTION    = 15.49283604
ECCENTRICITY   = .00013044
INCLINATION    = 53.1599
RA_OF_ASC_NODE = 254.3788
ARG_OF_PERICENTER = 84.3849
MEAN_ANOMALY   = 185.0793

EPHEMERIS_TYPE = 0
CLASSIFICATION_TYPE = U
NORAD_CAT_ID   = 65891
ELEMENT_SET_NO = 999
REV_AT_EPOCH   = 507
BSTAR          = -.23769344E-3
MEAN_MOTION_DOT = -.13633E-3
MEAN_MOTION_DDOT = 0

CCSDS_OMM_VERS = 2.0
CREATION_DATE  = 
ORIGINATOR     = 

OBJECT_NAME    = STARLINK-34853
OBJECT_ID      = 2025-224L
CENTER_NAME    = EARTH
REF_FRAME      = TEME
TIME_SYSTEM    = UTC
MEAN_ELEMENT_THEORY = SGP/SGP4

EPOCH          = 2025-10-31T06:00:02.000160
MEAN_MOTION    = 15.49230371
ECCENTRICITY   = .00013836
INCLINATION    = 53.1589
RA_OF_ASC_NODE = 254.6240
ARG_OF_PERICENTER = 90.8648
MEAN_ANOMALY   = 60.4425

EPHEMERIS_TYPE = 0
CLASSIFICATION_TYPE = U
NORAD_CAT_ID   = 65892
ELEMENT_SET_NO = 999
REV_AT_EPOCH   = 500
BSTAR          = .26452755E-2
MEAN_MOTION_DOT = .149098E-2
MEAN_MOTION_DDOT = 0

CCSDS_OMM_VERS = 2.0
CREATION_DATE  = 
ORIGINATOR     = 

OBJECT_NAME    = STARLINK-34921
OBJECT_ID      = 2025-224M
CENTER_NAME    = EARTH
REF_FRAME      = TEME
TIME_SYSTEM    = UTC
MEAN_ELEMENT_THEORY = SGP/SGP4

EPOCH          = 2025-10-31T06:00:02.000160
MEAN_MOTION    = 15.49343201
ECCENTRICITY   = .00017085
INCLINATION    = 53.1600
RA_OF_ASC_NODE = 254.3668
ARG_OF_PERICENTER = 100.1376
MEAN_ANOMALY   = 175.0426

EPHEMERIS_TYPE = 0
CLASSIFICATION_TYPE = U
NORAD_CAT_ID   = 65893
ELEMENT_SET_NO = 999
REV_AT_EPOCH   = 507
BSTAR          = -.19139057E-2
MEAN_MOTION_DOT = -.105599E-2
MEAN_MOTION_DDOT = 0

CCSDS_OMM_VERS = 2.0
CREATION_DATE  = 
ORIGINATOR     = 

OBJECT_NAME    = STARLINK-34672
OBJECT_ID      = 2025-224N
CENTER_NAME    = EARTH
REF_FRAME      = TEME
TIME_SYSTEM    = UTC
MEAN_ELEMENT_THEORY = SGP/SGP4

EPOCH          = 2025-10-31T06:00:02.000160
MEAN_MOTION    = 15.49338457
ECCENTRICITY   = .00018019
INCLINATION    = 53.1600
RA_OF_ASC_NODE = 254.3749
ARG_OF_PERICENTER = 101.9957
MEAN_ANOMALY   = 169.3558

EPHEMERIS_TYPE = 0
CLASSIFICATION_TYPE = U
NORAD_CAT_ID   = 65894
ELEMENT_SET_NO = 999
REV_AT_EPOCH   = 507
BSTAR          = -.18405432E-2
MEAN_MOTION_DOT = -.101604E-2
MEAN_MOTION_DDOT = 0

CCSDS_OMM_VERS = 2.0
CREATION_DATE  = 
ORIGINATOR     = 

OBJECT_NAME    = STARLINK-34898
OBJECT_ID      = 2025-224P
CENTER_NAME    = EARTH
REF_FRAME      = TEME
TIME_SYSTEM    = UTC
MEAN_ELEMENT_THEORY = SGP/SGP4

EPOCH          = 2025-10-31T06:00:02.000160
MEAN_MOTION    = 15.49331233
ECCENTRICITY   = .00019119
INCLINATION    = 53.1599
RA_OF_ASC_NODE = 254.3583
ARG_OF_PERICENTER = 102.1422
MEAN_ANOMALY   = 176.8833

EPHEMERIS_TYPE = 0
CLASSIFICATION_TYPE = U
NORAD_CAT_ID   = 65895
ELEMENT_SET_NO = 999
REV_AT_EPOCH   = 507
BSTAR          = -.15971388E-2
MEAN_MOTION_DOT = -.88353E-3
MEAN_MOTION_DDOT = 0

CCSDS_OMM_VERS = 2.0
CREATION_DATE  = 
ORIGINATOR     = 

OBJECT_NAME    = STARLINK-34906
OBJECT_ID      = 2025-224Q
CENTER_NAME    = EARTH
REF_FRAME      = TEME
TIME_SYSTEM    = UTC
MEAN_ELEMENT_THEORY = SGP/SGP4

EPOCH          = 2025-10-31T06:00:02.000160
MEAN_MOTION    = 15.49343568
ECCENTRICITY   = .00015237
INCLINATION    = 53.1599
RA_OF_ASC_NODE = 254.3626
ARG_OF_PERICENTER = 99.5584
MEAN_ANOMALY   = 177.5437

EPHEMERIS_TYPE = 0
CLASSIFICATION_TYPE = U
NORAD_CAT_ID   = 65896
ELEMENT_SET_NO = 999
REV_AT_EPOCH   = 507
BSTAR          = -.19831518E-2
MEAN_MOTION_DOT = -.109351E-2
MEAN_MOTION_DDOT = 0

CCSDS_OMM_VERS = 2.0
CREATION_DATE  = 
ORIGINATOR     = 

OBJECT_NAME    = STARLINK-34934
OBJECT_ID      = 2025-224R
CENTER_NAME    = EARTH
REF_FRAME      = TEME
TIME_SYSTEM    = UTC
MEAN_ELEMENT_THEORY = SGP/SGP4

EPOCH          = 2025-10-31T06:00:02.000160
MEAN_MOTION    = 15.49286235
ECCENTRICITY   = .00014194
INCLINATION    = 53.1599
RA_OF_ASC_NODE = 254.3506
ARG_OF_PERICENTER = 96.7716
MEAN_ANOMALY   = 186.1045

EPHEMERIS_TYPE = 0
CLASSIFICATION_TYPE = U
NORAD_CAT_ID   = 65897
ELEMENT_SET_NO = 999
REV_AT_EPOCH   = 502
BSTAR          = -.13844175E-3
MEAN_MOTION_DOT = -.8134E-4
MEAN_MOTION_DDOT = 0

CCSDS_OMM_VERS = 2.0
CREATION_DATE  = 
ORIGINATOR     = 

OBJECT_NAME    = STARLINK-34936
OBJECT_ID      = 2025-224S
CENTER_NAME    = EARTH
REF_FRAME      = TEME
TIME_SYSTEM    = UTC
MEAN_ELEMENT_THEORY = SGP/SGP4

EPOCH          = 2025-10-31T06:00:02.000160
MEAN_MOTION    = 15.49194395
ECCENTRICITY   = .000157
INCLINATION    = 53.1599
RA_OF_ASC_NODE = 254.3547
ARG_OF_PERICENTER = 101.0179
MEAN_ANOMALY   = 179.9934

EPHEMERIS_TYPE = 0
CLASSIFICATION_TYPE = U
NORAD_CAT_ID   = 65898
ELEMENT_SET_NO = 999
REV_AT_EPOCH   = 507
BSTAR          = .21379817E-2
MEAN_MOTION_DOT = .119813E-2
MEAN_MOTION_DDOT = 0

CCSDS_OMM_VERS = 2.0
CREATION_DATE  = 
ORIGINATOR     = 

OBJECT_NAME    = STARLINK-35272
OBJECT_ID      = 2025-224T
CENTER_NAME    = EARTH
REF_FRAME      = TEME
TIME_SYSTEM    = UTC
MEAN_ELEMENT_THEORY = SGP/SGP4

EPOCH          = 2025-10-31T06:00:02.000160
MEAN_MOTION    = 15.49172264
ECCENTRICITY   = .00012658
INCLINATION    = 53.1600
RA_OF_ASC_NODE = 254.3453
ARG_OF_PERICENTER = 70.9038
MEAN_ANOMALY   = 213.9567

EPHEMERIS_TYPE = 0
CLASSIFICATION_TYPE = U
NORAD_CAT_ID   = 65899
ELEMENT_SET_NO = 999
REV_AT_EPOCH   = 506
BSTAR          = .25979525E-2
MEAN_MOTION_DOT = .146066E-2
MEAN_MOTION_DDOT = 0

CCSDS_OMM_VERS = 2.0
CREATION_DATE  = 
ORIGINATOR     = 

OBJECT_NAME    = STARLINK-35264
OBJECT_ID      = 2025-224U
CENTER_NAME    = EARTH
REF_FRAME      = TEME
TIME_SYSTEM    = UTC
MEAN_ELEMENT_THEORY = SGP/SGP4

EPOCH          = 2025-10-31T06:00:02.000160
MEAN_MOTION    = 15.49190247
ECCENTRICITY   = .00013084
INCLINATION    = 53.1601
RA_OF_ASC_NODE = 254.3417
ARG_OF_PERICENTER = 79.8719
MEAN_ANOMALY   = 206.8885

EPHEMERIS_TYPE = 0
CLASSIFICATION_TYPE = U
NORAD_CAT_ID   = 65900
ELEMENT_SET_NO = 999
REV_AT_EPOCH   = 506
BSTAR          = .22582556E-2
MEAN_MOTION_DOT = .126671E-2
MEAN_MOTION_DDOT = 0

CCSDS_OMM_VERS = 2.0
CREATION_DATE  = 
ORIGINATOR     = 

OBJECT_NAME    = STARLINK-35249
OBJECT_ID      = 2025-224V
CENTER_NAME    = EARTH
REF_FRAME      = TEME
TIME_SYSTEM    = UTC
MEAN_ELEMENT_THEORY = SGP/SGP4

EPOCH          = 2025-10-31T06:00:02.000160
MEAN_MOTION    = 15.49292352
ECCENTRICITY   = .00013775
INCLINATION    = 53.1599
RA_OF_ASC_NODE = 254.3384
ARG_OF_PERICENTER = 99.8278
MEAN_ANOMALY   = 188.7987

EPHEMERIS_TYPE = 0
CLASSIFICATION_TYPE = U
NORAD_CAT_ID   = 65901
ELEMENT_SET_NO = 999
REV_AT_EPOCH   = 505
BSTAR          = -.41142293E-3
MEAN_MOTION_DOT = -.23249E-3
MEAN_MOTION_DDOT = 0

